{
  "type": "FeatureCollection",
  "features": [
    {
      "type": "Feature",
      "properties": {
        "id": "barrio-mendieta",
        "nombre": "Barrio Mendieta"
      },
      "geometry": {
        "type": "Polygon",
        "coordinates": [
          [
            [-58.07626384143798, -31.38027702535933],
            [-58.07836192957174, -31.38183198086417],
            [-58.07543781191748, -31.38433624037627],
            [-58.07362270333405, -31.38271830801273],
            [-58.07626384143798, -31.38027702535933]
          ]
        ]
      }
    }
  ]
}
