{
  "type": "FeatureCollection",
  "features": [
    {
      "type": "Feature",
      "properties": {
        "id": "barrio-la-bianca",
        "nombre": "Barrio La Bianca"
      },
      "geometry": {
        "type": "Polygon",
        "coordinates": [
          [
            [
              -58.003451195381594,
              -31.351587323462756
            ],
            [
              -58.0032149814358,
              -31.350350388400415
            ],
            [
              -58.00380551630028,
              -31.350267925484477
            ],
            [
              -58.00350488036926,
              -31.348930183637062
            ],
            [
              -58.000777682995064,
              -31.349296690145163
            ],
            [
              -58.00099242294581,
              -31.350231275276418
            ],
            [
              -58.00099242294581,
              -31.350212950167045
            ],
            [
              -58.00146485083739,
              -31.35142239972773
            ],
            [
              -58.00155074681768,
              -31.35169727245872
            ],
            [
              -58.0026244465713,
              -31.351376587527792
            ],
            [
              -58.0029465564974,
              -31.35165146039268
            ],
            [
              -58.00347266937666,
              -31.351587323462756
            ],
            [
              -58.003451195381594,
              -31.351587323462756
            ]
          ]
        ]
      }
    }
  ]
}
