{
  "type": "FeatureCollection",
  "features": [
    {
      "type": "Feature",
      "properties": {
        "id": "barrio-la-colina",
        "nombre": "Barrio La Colina"
      },
      "geometry": {
        "type": "Polygon",
        "coordinates": [
          [
            [
              -58.05015162501174,
              -31.3759904143766
            ],
            [
              -58.05026973198464,
              -31.376594975292107
            ],
            [
              -58.0506455268984,
              -31.376530855379446
            ],
            [
              -58.0516548046668,
              -31.378225438367238
            ],
            [
              -58.052792926405665,
              -31.377941483349705
            ],
            [
              -58.05361967521595,
              -31.378472753328342
            ],
            [
              -58.0542853690632,
              -31.3766224552413
            ],
            [
              -58.05407062911247,
              -31.37535836926008
            ],
            [
              -58.05022678399449,
              -31.37598125433282
            ],
            [
              -58.05015162501174,
              -31.3759904143766
            ]
          ]
        ]
      }
    }
  ]
}
